GLOBALSTAR M001         
1 25162U 98008A   25016.45183925 -.00000068  00000+0  22200-3 0  9995
2 25162  52.0044  54.8608 0001169 281.8840 216.5676 12.38205328225020
GLOBALSTAR M004         
1 25163U 98008B   25016.74941858 -.00000083  00000+0  11456-3 0  9993
2 25163  51.9985 156.1482 0002155 327.7500 181.3969 12.63385226242542
GLOBALSTAR M002         
1 25164U 98008C   25016.87628019 -.00000088  00000+0 -23402-3 0  9999
2 25164  52.0003 259.5930 0000455 190.3299 169.7511 11.61506521166483
GLOBALSTAR M003         
1 25165U 98008D   25017.31703449 -.00000014  00000+0  79979-3 0  9999
2 25165  51.9959 226.3620 0008031 355.8522 180.4848 12.12066041215017
GLOBALSTAR M014         
1 25306U 98023A   25017.20641632 -.00000089  00000+0 -21435-3 0  9993
2 25306  51.9805 185.1618 0002174  90.0949  86.3445 11.65478060173550
GLOBALSTAR M006         
1 25307U 98023B   25017.03410100 -.00000063  00000+0  25921-3 0  9994
2 25307  51.9905 232.4232 0003236 173.4550 355.2664 11.58171697199427
GLOBALSTAR M015         
1 25308U 98023C   25016.82924410  .00000005  00000+0  17812-2 0  9999
2 25308  51.9850 324.4673 0012455 165.1749 235.9973 11.48857248177053
GLOBALSTAR M008         
1 25309U 98023D   25017.20447337 -.00000065  00000+0  24500-3 0  9991
2 25309  51.9968 275.7925 0001816 206.2922 320.6594 12.36060543219488
